$$SOE
2460721.500000000, A.D. 2025-Feb-15 00:00:00.0000, 6.140066621115658E+07, -2.796910738133361E+08, 6.611968408276097E+07,
2460728.500000000, A.D. 2025-Feb-22 00:00:00.0000, 7.283716014076424E+07, -2.749335302385650E+08, 6.886116140633598E+07,
2460735.500000000, A.D. 2025-Mar-01 00:00:00.0000, 8.413253228827849E+07, -2.696435426945570E+08, 7.146924918144438E+07,
2460742.500000000, A.D. 2025-Mar-08 00:00:00.0000, 9.526276678661557E+07, -2.638245012019521E+08, 7.393707779848322E+07,
2460749.500000000, A.D. 2025-Mar-15 00:00:00.0000, 1.062035257337580E+08, -2.574809018786612E+08, 7.625786415120623E+07,
2460756.500000000, A.D. 2025-Mar-22 00:00:00.0000, 1.169301841334187E+08, -2.506183981767400E+08, 7.842493209741832E+07,
2460763.500000000, A.D. 2025-Mar-29 00:00:00.0000, 1.274178716180599E+08, -2.432438545732805E+08, 8.043173431948441E+07,
2460770.500000000, A.D. 2025-Apr-05 00:00:00.0000, 1.376415216547492E+08, -2.353653991130887E+08, 8.227187584871453E+07,
2460777.500000000, A.D. 2025-Apr-12 00:00:00.0000, 1.475759266643785E+08, -2.269924741678509E+08, 8.393913946024472E+07,
2460784.500000000, A.D. 2025-Apr-19 00:00:00.0000, 1.571957991967348E+08, -2.181358856885848E+08, 8.542751288413274E+07,
2460791.500000000, A.D. 2025-Apr-26 00:00:00.0000, 1.664758397267704E+08, -2.088078504756087E+08, 8.673121776798359E+07,
2460798.500000000, A.D. 2025-May-03 00:00:00.0000, 1.753908114314053E+08, -1.990220406939955E+08, 8.784474033205640E+07,
2460805.500000000, A.D. 2025-May-10 00:00:00.0000, 1.839156221589467E+08, -1.887936247997953E+08, 8.876286363312376E+07,
2460812.500000000, A.D. 2025-May-17 00:00:00.0000, 1.920254137346822E+08, -1.781393040197602E+08, 8.948070131112471E+07,
2460819.500000000, A.D. 2025-May-24 00:00:00.0000, 1.996956587950850E+08, -1.670773434712411E+08, 8.999373263868734E+07,
2460826.500000000, A.D. 2025-May-31 00:00:00.0000, 2.069022654868405E+08, -1.556275965856778E+08, 9.029783866418834E+07,
2460833.500000000, A.D. 2025-Jun-07 00:00:00.0000, 2.136216894274163E+08, -1.438115205666845E+08, 9.038933934937853E+07,
2460840.500000000, A.D. 2025-Jun-14 00:00:00.0000, 2.198310502149456E+08, -1.316521824591517E+08, 9.026503157927838E+07,
2460847.500000000, A.D. 2025-Jun-21 00:00:00.0000, 2.255082531956848E+08, -1.191742579913166E+08, 8.992222732010598E+07,
2460854.500000000, A.D. 2025-Jun-28 00:00:00.0000, 2.306321189426271E+08, -1.064040203170180E+08, 8.935879138010415E+07,
2460861.500000000, A.D. 2025-Jul-05 00:00:00.0000, 2.351825180802423E+08, -9.336931542372403E+07, 8.857317863378945E+07,
2460868.500000000, A.D. 2025-Jul-12 00:00:00.0000, 2.391405092345739E+08, -8.009952398743555E+07, 8.756447024962832E+07,
2460875.500000000, A.D. 2025-Jul-19 00:00:00.0000, 2.424884790864165E+08, -6.662550931001174E+07, 8.633240831776318E+07,
2460882.500000000, A.D. 2025-Jul-26 00:00:00.0000, 2.452102833438471E+08, -5.297955058419832E+07, 8.487742829203486E+07,
2460889.500000000, A.D. 2025-Aug-02 00:00:00.0000, 2.472913871253958E+08, -3.919526082515302E+07, 8.320068866029762E+07,
2460896.500000000, A.D. 2025-Aug-09 00:00:00.0000, 2.487190030329481E+08, -2.530748905016542E+07, 8.130409723819438E+07,
2460903.500000000, A.D. 2025-Aug-16 00:00:00.0000, 2.494822250987288E+08, -1.135220657380392E+07, 7.919033346007757E+07,
2460910.500000000, A.D. 2025-Aug-23 00:00:00.0000, 2.495721568852070E+08, 2.633622526908386E+06, 7.686286602654010E+07,
2460917.500000000, A.D. 2025-Aug-30 00:00:00.0000, 2.489820319630010E+08, 1.661218713483755E+07, 7.432596533662167E+07,
2460924.500000000, A.D. 2025-Sep-06 00:00:00.0000, 2.477073232159442E+08, 3.054499134554087E+07, 7.158471036930062E+07,
2460931.500000000, A.D. 2025-Sep-13 00:00:00.0000, 2.457458372047546E+08, 4.439302976454380E+07, 6.864498949355890E+07,
2460938.500000000, A.D. 2025-Sep-20 00:00:00.0000, 2.430977948197777E+08, 5.811697284938505E+07, 6.551349436518820E+07,
2460945.500000000, A.D. 2025-Sep-27 00:00:00.0000, 2.397658973516982E+08, 7.167736373127779E+07, 6.219770674917577E+07,
2460952.500000000, A.D. 2025-Oct-04 00:00:00.0000, 2.357553742287153E+08, 8.503482506448144E+07, 5.870587829668311E+07,
2460959.500000000, A.D. 2025-Oct-11 00:00:00.0000, 2.310740105613873E+08, 9.815027267394331E+07, 5.504700315743209E+07,
2460966.500000000, A.D. 2025-Oct-18 00:00:00.0000, 2.257321535896530E+08, 1.109851331861326E+08, 5.123078342930944E+07,
2460973.500000000, A.D. 2025-Oct-25 00:00:00.0000, 2.197426973199922E+08, 1.235015629129277E+08, 4.726758761421631E+07,
2460980.500000000, A.D. 2025-Nov-01 00:00:00.0000, 2.131210449108707E+08, 1.356626651289158E+08, 4.316840239443133E+07,
2460987.500000000, A.D. 2025-Nov-08 00:00:00.0000, 2.058850487580311E+08, 1.474327027788846E+08, 3.894477818379064E+07,
2460994.500000000, A.D. 2025-Nov-15 00:00:00.0000, 1.980549287711176E+08, 1.587773036492603E+08, 3.460876904392822E+07,
2461001.500000000, A.D. 2025-Nov-22 00:00:00.0000, 1.896531700389577E+08, 1.696636554117787E+08, 3.017286769376098E+07,
2461008.500000000, A.D. 2025-Nov-29 00:00:00.0000, 1.807044009640396E+08, 1.800606890071327E+08, 2.564993656981497E+07,
2461015.500000000, A.D. 2025-Dec-06 00:00:00.0000, 1.712352511938642E+08, 1.899392477825545E+08, 2.105313605641061E+07,
2461022.500000000, A.D. 2025-Dec-13 00:00:00.0000, 1.612741917549783E+08, 1.992722368927056E+08, 1.639585055152284E+07,
2461029.500000000, A.D. 2025-Dec-20 00:00:00.0000, 1.508513631759640E+08, 2.080347521970424E+08, 1.169161312758492E+07,
2461036.500000000, A.D. 2025-Dec-27 00:00:00.0000, 1.399983930068065E+08, 2.162041898225607E+08, 6.954030085765153E+06,
2461043.500000000, A.D. 2026-Jan-03 00:00:00.0000, 1.287482039067069E+08, 2.237603347894404E+08, 2.196706462238446E+06,
2461050.500000000, A.D. 2026-Jan-10 00:00:00.0000, 1.171348151393351E+08, 2.306854274739355E+08, -2.566826643683836E+06,
2461057.500000000, A.D. 2026-Jan-17 00:00:00.0000, 1.051931404585271E+08, 2.369642077010033E+08, -7.323182077464759E+06,
2461064.500000000, A.D. 2026-Jan-24 00:00:00.0000, 9.295878516283804E+07, 2.425839367874828E+08, -1.205918319180042E+07,
2461071.500000000, A.D. 2026-Jan-31 00:00:00.0000, 8.046784492844410E+07, 2.475343982119285E+08, -1.676192627938449E+07,
2461078.500000000, A.D. 2026-Feb-07 00:00:00.0000, 6.775670889640190E+07, 2.518078778834413E+08, -2.141883831038319E+07,
2461085.500000000, A.D. 2026-Feb-14 00:00:00.0000, 5.486186946195946E+07, 2.553991253236891E+08, -2.601772954114619E+07,
2461092.500000000, A.D. 2026-Feb-21 00:00:00.0000, 4.181974109192111E+07, 2.583052979203457E+08, -3.054684064658207E+07,
2461099.500000000, A.D. 2026-Feb-28 00:00:00.0000, 2.866648875138553E+07, 2.605258911792143E+08, -3.499488396967433E+07,
2461106.500000000, A.D. 2026-Mar-07 00:00:00.0000, 1.543786525139717E+07, 2.620626549004778E+08, -3.935107875370415E+07,
2461113.500000000, A.D. 2026-Mar-14 00:00:00.0000, 2.169061329615894E+06, 2.629194949086183E+08, -4.360518079698898E+07,
2461120.500000000, A.D. 2026-Mar-21 00:00:00.0000, -1.110542899399763E+07, 2.631023652668171E+08, -4.774750656426699E+07,
2461127.500000000, A.D. 2026-Mar-28 00:00:00.0000, -2.435192930516507E+07, 2.626191539863918E+08, -5.176895167614473E+07,
2461134.500000000, A.D. 2026-Apr-04 00:00:00.0000, -3.753768832062793E+07, 2.614795631759495E+08, -5.566100405603861E+07,
2461141.500000000, A.D. 2026-Apr-11 00:00:00.0000, -5.063097380855041E+07, 2.596949850949886E+08, -5.941575210705224E+07,
2461148.500000000, A.D. 2026-Apr-18 00:00:00.0000, -6.360115298251294E+07, 2.572783758094091E+08, -6.302588829970337E+07,
2461155.500000000, A.D. 2026-Apr-25 00:00:00.0000, -7.641875973497069E+07, 2.542441280203310E+08, -6.648470856955476E+07,
2461162.500000000, A.D. 2026-May-02 00:00:00.0000, -8.905554923652743E+07, 2.506079444261723E+08, -6.978610793717282E+07,
2461169.500000000, A.D. 2026-May-09 00:00:00.0000, -1.014845404603802E+08, 2.463867127653841E+08, -7.292457277143201E+07,
2461176.500000000, A.D. 2026-May-16 00:00:00.0000, -1.136800470500129E+08, 2.415983837235695E+08, -7.589517012111418E+07,
2461183.500000000, A.D. 2026-May-23 00:00:00.0000, -1.256176973581353E+08, 2.362618536224148E+08, -7.869353444566733E+07,
2461190.500000000, A.D. 2026-May-30 00:00:00.0000, -1.372744466519077E+08, 2.303968529669201E+08, -8.131585194737831E+07,
2461197.500000000, A.D. 2026-Jun-06 00:00:00.0000, -1.486285827053968E+08, 2.240238381820136E+08, -8.375884314322105E+07,
2461204.500000000, A.D. 2026-Jun-13 00:00:00.0000, -1.596597220090877E+08, 2.171638871732613E+08, -8.601974435066760E+07,
2461211.500000000, A.D. 2026-Jun-20 00:00:00.0000, -1.703487979980019E+08, 2.098386019503249E+08, -8.809628813612370E+07,
2461218.500000000, A.D. 2026-Jun-27 00:00:00.0000, -1.806780438588888E+08, 2.020700181788719E+08, -8.998668290550804E+07,
2461225.500000000, A.D. 2026-Jul-04 00:00:00.0000, -1.906309707361915E+08, 1.938805209784393E+08, -9.168959196832499E+07,
2461232.500000000, A.D. 2026-Jul-11 00:00:00.0000, -2.001923418625128E+08, 1.852927668360965E+08, -9.320411234807973E+07,
2461239.500000000, A.D. 2026-Jul-18 00:00:00.0000, -2.093481432508649E+08, 1.763296115906543E+08, -9.452975355834477E+07,
2461246.500000000, A.D. 2026-Jul-25 00:00:00.0000, -2.180855515986942E+08, 1.670140443576656E+08, -9.566641653300014E+07,
2461253.500000000, A.D. 2026-Aug-01 00:00:00.0000, -2.263928999723288E+08, 1.573691271636544E+08, -9.661437287949483E+07,
2461260.500000000, A.D. 2026-Aug-08 00:00:00.0000, -2.342596416156360E+08, 1.474179400293190E+08, -9.737424461338979E+07,
2461267.500000000, A.D. 2026-Aug-15 00:00:00.0000, -2.416763119693499E+08, 1.371835316956484E+08, -9.794698448763222E+07,
2461274.500000000, A.D. 2026-Aug-22 00:00:00.0000, -2.486344901098515E+08, 1.266888769334992E+08, -9.833385683856069E+07,
2461281.500000000, A.D. 2026-Aug-29 00:00:00.0000, -2.551267622958033E+08, 1.159568387692716E+08, -9.853641892758757E+07,
2461288.500000000, A.D. 2026-Sep-05 00:00:00.0000, -2.611466858353343E+08, 1.050101324611910E+08, -9.855650326870751E+07,
$$EOE